[{"OBJECT_NAME":"STARLINK-33751","OBJECT_ID":"2025-071V","EPOCH":"2026-03-09T11:14:05.601696","MEAN_MOTION":15.30178554,"ECCENTRICITY":0.00011972,"INCLINATION":53.1592,"RA_OF_ASC_NODE":141.0777,"ARG_OF_PERICENTER":85.3209,"MEAN_ANOMALY":274.7928,"EPHEMERIS_TYPE":0,"CLASSIFICATION_TYPE":"U","NORAD_CAT_ID":63512,"ELEMENT_SET_NO":999,"REV_AT_EPOCH":5271,"BSTAR":0.000930156,"MEAN_MOTION_DOT":0.00027272,"MEAN_MOTION_DDOT":0},{"OBJECT_NAME":"GEOSCAN 5 (RS92S5)","OBJECT_ID":"2025-155R","EPOCH":"2026-03-09T22:01:07.273920","MEAN_MOTION":15.30265233,"ECCENTRICITY":0.00070849,"INCLINATION":97.4462,"RA_OF_ASC_NODE":37.7456,"ARG_OF_PERICENTER":154.5846,"MEAN_ANOMALY":205.5745,"EPHEMERIS_TYPE":0,"CLASSIFICATION_TYPE":"U","NORAD_CAT_ID":64891,"ELEMENT_SET_NO":999,"REV_AT_EPOCH":6562,"BSTAR":0.00068639307,"MEAN_MOTION_DOT":0.00020065,"MEAN_MOTION_DDOT":0}]
